[{"OBJECT_NAME":"STARLINK-32108","OBJECT_ID":"2024-086A","EPOCH":"2026-03-09T01:25:29.848800","MEAN_MOTION":15.27573212,"ECCENTRICITY":0.00010572,"INCLINATION":43.0039,"RA_OF_ASC_NODE":67.0607,"ARG_OF_PERICENTER":271.5921,"MEAN_ANOMALY":88.4809,"EPHEMERIS_TYPE":0,"CLASSIFICATION_TYPE":"U","NORAD_CAT_ID":59682,"ELEMENT_SET_NO":999,"REV_AT_EPOCH":10396,"BSTAR":2.9013389e-5,"MEAN_MOTION_DOT":5.36e-6,"MEAN_MOTION_DDOT":0},{"OBJECT_NAME":"OBJECT D","OBJECT_ID":"2024-173D","EPOCH":"2026-03-09T23:30:29.956896","MEAN_MOTION":15.27005733,"ECCENTRICITY":0.00090093,"INCLINATION":97.3606,"RA_OF_ASC_NODE":149.3901,"ARG_OF_PERICENTER":241.6081,"MEAN_ANOMALY":118.425,"EPHEMERIS_TYPE":0,"CLASSIFICATION_TYPE":"U","NORAD_CAT_ID":61230,"ELEMENT_SET_NO":999,"REV_AT_EPOCH":8130,"BSTAR":0.00072064626,"MEAN_MOTION_DOT":0.00019078,"MEAN_MOTION_DDOT":0}]
